[{"OBJECT_NAME":"STARLINK-3058","OBJECT_ID":"2021-082J","EPOCH":"2026-03-09T21:56:31.840224","MEAN_MOTION":14.98327791,"ECCENTRICITY":0.00020205,"INCLINATION":69.9986,"RA_OF_ASC_NODE":293.8975,"ARG_OF_PERICENTER":250.3449,"MEAN_ANOMALY":109.7493,"EPHEMERIS_TYPE":0,"CLASSIFICATION_TYPE":"U","NORAD_CAT_ID":49138,"ELEMENT_SET_NO":999,"REV_AT_EPOCH":24601,"BSTAR":5.8290098e-5,"MEAN_MOTION_DOT":6.03e-6,"MEAN_MOTION_DDOT":0},{"OBJECT_NAME":"DMSP 5D-2 F13 DEB","OBJECT_ID":"1995-015CP","EPOCH":"2026-03-07T12:11:36.379680","MEAN_MOTION":14.97633156,"ECCENTRICITY":0.00060588,"INCLINATION":98.7878,"RA_OF_ASC_NODE":156.2683,"ARG_OF_PERICENTER":182.3212,"MEAN_ANOMALY":177.798,"EPHEMERIS_TYPE":0,"CLASSIFICATION_TYPE":"U","NORAD_CAT_ID":40500,"ELEMENT_SET_NO":999,"REV_AT_EPOCH":57139,"BSTAR":0.013984163,"MEAN_MOTION_DOT":0.00167441,"MEAN_MOTION_DDOT":0}]
